{
  "type": "FeatureCollection",
  "features": [
    {
      "type": "Feature",
      "properties": {
        "norad_id": 39766,
        "name": "ALOS-2",
        "group": "resource",
        "lat": -24.356234864760264,
        "lon": 87.13229655919164,
        "alt_km": 637.1295403362165,
        "timestamp": "2025-12-14T16:47:40.340003+00:00",
        "meta_object_name": "ALOS-2",
        "meta_object_id": "2014-029A",
        "meta_epoch": "2025-12-14T08:47:22.493184",
        "meta_mean_motion": 14.79469978,
        "meta_eccentricity": 0.0001379,
        "meta_inclination": 97.9225,
        "meta_ra_of_asc_node": 83.1892,
        "meta_arg_of_pericenter": 102.2886,
        "meta_mean_anomaly": 257.848,
        "meta_ephemeris_type": 0,
        "meta_classification_type": "U",
        "meta_norad_cat_id": 39766,
        "meta_element_set_no": 999,
        "meta_rev_at_epoch": 62425,
        "meta_bstar": 0.00031508,
        "meta_mean_motion_dot": 2.302e-05,
        "meta_mean_motion_ddot": 0,
        "tle_line1": "1 39766U 14029A   25348.36623256  .00002302  00000+0  31508-3 0  9998",
        "tle_line2": "2 39766  97.9225  83.1892 0001379 102.2886 257.8480 14.79469978624252"
      },
      "geometry": {
        "type": "Point",
        "coordinates": [
          87.13229655919164,
          -24.356234864760264
        ]
      }
    },
    {
      "type": "Feature",
      "properties": {
        "norad_id": 40010,
        "name": "KAZEOSAT 2",
        "group": "resource",
        "lat": -72.48075637571426,
        "lon": -142.23917776500573,
        "alt_km": 619.9767831450608,
        "timestamp": "2025-12-14T16:47:40.340014+00:00",
        "meta_object_name": "KAZEOSAT 2",
        "meta_object_id": "2014-033A",
        "meta_epoch": "2025-12-13T23:20:29.408640",
        "meta_mean_motion": 14.85170609,
        "meta_eccentricity": 0.00077316,
        "meta_inclination": 97.5509,
        "meta_ra_of_asc_node": 192.2237,
        "meta_arg_of_pericenter": 202.3323,
        "meta_mean_anomaly": 157.7558,
        "meta_ephemeris_type": 0,
        "meta_classification_type": "U",
        "meta_norad_cat_id": 40010,
        "meta_element_set_no": 999,
        "meta_rev_at_epoch": 62146,
        "meta_bstar": 0.00012008991,
        "meta_mean_motion_dot": 9.79e-06,
        "meta_mean_motion_ddot": 0,
        "tle_line1": "1 40010U 14033A   25347.97256260  .00000979  00000+0  12009-3 0  9993",
        "tle_line2": "2 40010  97.5509 192.2237 0007731 202.3323 157.7558 14.85170609621469"
      },
      "geometry": {
        "type": "Point",
        "coordinates": [
          -142.23917776500573,
          -72.48075637571426
        ]
      }
    },
    {
      "type": "Feature",
      "properties": {
        "norad_id": 40011,
        "name": "HODOYOSHI-4",
        "group": "resource",
        "lat": 29.430468879550947,
        "lon": 173.20030656831386,
        "alt_km": 620.0030141771276,
        "timestamp": "2025-12-14T16:47:40.340024+00:00",
        "meta_object_name": "HODOYOSHI-4",
        "meta_object_id": "2014-033B",
        "meta_epoch": "2025-12-14T00:30:58.317120",
        "meta_mean_motion": 14.87490404,
        "meta_eccentricity": 0.00232892,
        "meta_inclination": 97.5418,
        "meta_ra_of_asc_node": 176.8422,
        "meta_arg_of_pericenter": 195.9885,
        "meta_mean_anomaly": 164.06,
        "meta_ephemeris_type": 0,
        "meta_classification_type": "U",
        "meta_norad_cat_id": 40011,
        "meta_element_set_no": 999,
        "meta_rev_at_epoch": 62127,
        "meta_bstar": 0.00032588977,
        "meta_mean_motion_dot": 2.916e-05,
        "meta_mean_motion_ddot": 0,
        "tle_line1": "1 40011U 14033B   25348.02150830  .00002916  00000+0  32589-3 0  9995",
        "tle_line2": "2 40011  97.5418 176.8422 0023289 195.9885 164.0600 14.87490404621277"
      },
      "geometry": {
        "type": "Point",
        "coordinates": [
          173.20030656831386,
          29.430468879550947
        ]
      }
    },
    {
      "type": "Feature",
      "properties": {
        "norad_id": 40013,
        "name": "DEIMOS-2",
        "group": "resource",
        "lat": -45.406202643397926,
        "lon": 36.64541478283024,
        "alt_km": 595.7000020007463,
        "timestamp": "2025-12-14T16:47:40.340034+00:00",
        "meta_object_name": "DEIMOS-2",
        "meta_object_id": "2014-033D",
        "meta_epoch": "2025-12-13T23:42:03.385152",
        "meta_mean_motion": 14.92981344,
        "meta_eccentricity": 8.528e-05,
        "meta_inclination": 97.6063,
        "meta_ra_of_asc_node": 223.7467,
        "meta_arg_of_pericenter": 108.5548,
        "meta_mean_anomaly": 251.5765,
        "meta_ephemeris_type": 0,
        "meta_classification_type": "U",
        "meta_norad_cat_id": 40013,
        "meta_element_set_no": 999,
        "meta_rev_at_epoch": 61008,
        "meta_bstar": 0.00035736687,
        "meta_mean_motion_dot": 3.659e-05,
        "meta_mean_motion_ddot": 0,
        "tle_line1": "1 40013U 14033D   25347.98753918  .00003659  00000+0  35737-3 0  9990",
        "tle_line2": "2 40013  97.6063 223.7467 0000852 108.5548 251.5765 14.92981344610089"
      },
      "geometry": {
        "type": "Point",
        "coordinates": [
          36.64541478283024,
          -45.406202643397926
        ]
      }
    },
    {
      "type": "Feature",
      "properties": {
        "norad_id": 40015,
        "name": "HODOYOSHI-3",
        "group": "resource",
        "lat": -62.33711525112172,
        "lon": 169.24560836978418,
        "alt_km": 608.6139712084696,
        "timestamp": "2025-12-14T16:47:40.340045+00:00",
        "meta_object_name": "HODOYOSHI-3",
        "meta_object_id": "2014-033F",
        "meta_epoch": "2025-12-13T23:17:17.671488",
        "meta_mean_motion": 14.84812483,
        "meta_eccentricity": 0.00319395,
        "meta_inclination": 97.6197,
        "meta_ra_of_asc_node": 153.7518,
        "meta_arg_of_pericenter": 243.7861,
        "meta_mean_anomaly": 116.007,
        "meta_ephemeris_type": 0,
        "meta_classification_type": "U",
        "meta_norad_cat_id": 40015,
        "meta_element_set_no": 999,
        "meta_rev_at_epoch": 62013,
        "meta_bstar": 0.00024890133,
        "meta_mean_motion_dot": 2.079e-05,
        "meta_mean_motion_ddot": 0,
        "tle_line1": "1 40015U 14033F   25347.97034342  .00002079  00000+0  24890-3 0  9997",
        "tle_line2": "2 40015  97.6197 153.7518 0031939 243.7861 116.0070 14.84812483620137"
      },
      "geometry": {
        "type": "Point",
        "coordinates": [
          169.24560836978418,
          -62.33711525112172
        ]
      }
    },
    {
      "type": "Feature",
      "properties": {
        "norad_id": 40053,
        "name": "SPOT 7",
        "group": "resource",
        "lat": -29.41010797485249,
        "lon": -133.86942968949205,
        "alt_km": 697.3445786986895,
        "timestamp": "2025-12-14T16:47:40.340055+00:00",
        "meta_object_name": "SPOT 7",
        "meta_object_id": "2014-034A",
        "meta_epoch": "2025-12-13T23:23:53.216736",
        "meta_mean_motion": 14.60737277,
        "meta_eccentricity": 0.00015791,
        "meta_inclination": 98.0904,
        "meta_ra_of_asc_node": 50.0216,
        "meta_arg_of_pericenter": 86.8308,
        "meta_mean_anomaly": 273.3073,
        "meta_ephemeris_type": 0,
        "meta_classification_type": "U",
        "meta_norad_cat_id": 40053,
        "meta_element_set_no": 999,
        "meta_rev_at_epoch": 61009,
        "meta_bstar": 0.00023544086,
        "meta_mean_motion_dot": 1.102e-05,
        "meta_mean_motion_ddot": 0,
        "tle_line1": "1 40053U 14034A   25347.97492149  .00001102  00000+0  23544-3 0  9994",
        "tle_line2": "2 40053  98.0904  50.0216 0001579  86.8308 273.3073 14.60737277610098"
      },
      "geometry": {
        "type": "Point",
        "coordinates": [
          -133.86942968949205,
          -29.41010797485249
        ]
      }
    },
    {
      "type": "Feature",
      "properties": {
        "norad_id": 40072,
        "name": "SKYSAT-B",
        "group": "resource",
        "lat": -27.74819547654083,
        "lon": -63.0534461740801,
        "alt_km": 616.3874077552109,
        "timestamp": "2025-12-14T16:47:40.340065+00:00",
        "meta_object_name": "SKYSAT-B",
        "meta_object_id": "2014-037D",
        "meta_epoch": "2025-12-13T19:55:50.871360",
        "meta_mean_motion": 14.87333305,
        "meta_eccentricity": 0.00062291,
        "meta_inclination": 98.3607,
        "meta_ra_of_asc_node": 291.5941,
        "meta_arg_of_pericenter": 146.8423,
        "meta_mean_anomaly": 213.3183,
        "meta_ephemeris_type": 0,
        "meta_classification_type": "U",
        "meta_norad_cat_id": 40072,
        "meta_element_set_no": 999,
        "meta_rev_at_epoch": 61840,
        "meta_bstar": 0.00025305466,
        "meta_mean_motion_dot": 2.225e-05,
        "meta_mean_motion_ddot": 0,
        "tle_line1": "1 40072U 14037D   25347.83044990  .00002225  00000+0  25305-3 0  9994",
        "tle_line2": "2 40072  98.3607 291.5941 0006229 146.8423 213.3183 14.87333305618403"
      },
      "geometry": {
        "type": "Point",
        "coordinates": [
          -63.0534461740801,
          -27.74819547654083
        ]
      }
    }
  ]
}